SL-14 R/B               
1 21423U 91042B   26011.15721771  .00000429  00000+0  51221-4 0  9998
2 21423  82.4933 274.1410 0018555  71.6752 288.6479 14.81771653844557
ERS-1                   
1 21574U 91050A   26011.28041269  .00000363  00000+0  13081-3 0  9993
2 21574  98.7899  28.0733 0032208  14.5257 345.6848 14.39393796807471
ARIANE 40 R/B           
1 21610U 91050F   26011.12104889  .00000316  00000+0  10732-3 0  9993
2 21610  98.2123  65.4854 0002144 234.7157 125.3834 14.42842058810697
INTERCOSMOS 25          
1 21819U 91086A   26011.27510736  .00001684  00000+0  33456-3 0  9998
2 21819  82.6084 344.7094 1485965 240.6908 103.7747 12.11847126489732
SL-8 R/B                
1 21876U 92008B   26011.28509917  .00000104  00000+0  91717-4 0  9997
2 21876  82.9288 310.4727 0033525 296.3455 173.1766 13.75965858701522
SL-8 R/B                
1 21938U 92020B   26011.25055640  .00000181  00000+0  17124-3 0  9990
2 21938  82.9291 196.4023 0030236  97.9103  74.7517 13.75536706693231
USA 81                  
1 21949U 92023A   26011.16540586  .00000223  00000+0  75153-4 0  9997
2 21949  85.0097 164.6063 0001504 116.9004 243.2343 14.32340993 86556
COSMOS 2219             
1 22219U 92076A   26011.29352112  .00000104  00000+0  79392-4 0  9993
2 22219  71.0615 138.0541 0020489 286.2189  73.6679 14.14081034710269
SL-16 R/B               
1 22220U 92076B   26011.24805103  .00000282  00000+0  16430-3 0  9993
2 22220  71.0015 309.3730 0013201 192.8901 329.5561 14.16847760713697
COSMOS 2221             
1 22236U 92080A   26011.31819967  .00002588  00000+0  22854-3 0  9994
2 22236  82.5058 334.0113 0015499  31.5970 328.6179 14.95916055772213
SL-16 R/B               
1 22285U 92093B   26011.00182180  .00000177  00000+0  11481-3 0  9994
2 22285  71.0216 125.3703 0003450   3.6395 356.4753 14.15434809704998
COSMOS 2228             
1 22286U 92094A   26011.23832285  .00002715  00000+0  23350-3 0  9997
2 22286  82.5189 292.3101 0019139 131.2004 229.0873 14.96898203767468
