CCSDS_OMM_VERS = 2.0
CREATION_DATE  = 
ORIGINATOR     = 

OBJECT_NAME    = SL-14 R/B
OBJECT_ID      = 1991-042B
CENTER_NAME    = EARTH
REF_FRAME      = TEME
TIME_SYSTEM    = UTC
MEAN_ELEMENT_THEORY = SGP/SGP4

EPOCH          = 2026-01-11T03:46:23.610144
MEAN_MOTION    = 14.81771653
ECCENTRICITY   = .00185551
INCLINATION    = 82.4933
RA_OF_ASC_NODE = 274.1410
ARG_OF_PERICENTER = 71.6752
MEAN_ANOMALY   = 288.6479

EPHEMERIS_TYPE = 0
CLASSIFICATION_TYPE = U
NORAD_CAT_ID   = 21423
ELEMENT_SET_NO = 999
REV_AT_EPOCH   = 84455
BSTAR          = .51220752E-4
MEAN_MOTION_DOT = .429E-5
MEAN_MOTION_DDOT = 0

CCSDS_OMM_VERS = 2.0
CREATION_DATE  = 
ORIGINATOR     = 

OBJECT_NAME    = ERS-1
OBJECT_ID      = 1991-050A
CENTER_NAME    = EARTH
REF_FRAME      = TEME
TIME_SYSTEM    = UTC
MEAN_ELEMENT_THEORY = SGP/SGP4

EPOCH          = 2026-01-11T06:43:47.656416
MEAN_MOTION    = 14.39393796
ECCENTRICITY   = .00322088
INCLINATION    = 98.7899
RA_OF_ASC_NODE = 28.0733
ARG_OF_PERICENTER = 14.5257
MEAN_ANOMALY   = 345.6848

EPHEMERIS_TYPE = 0
CLASSIFICATION_TYPE = U
NORAD_CAT_ID   = 21574
ELEMENT_SET_NO = 999
REV_AT_EPOCH   = 80747
BSTAR          = .13081243E-3
MEAN_MOTION_DOT = .363E-5
MEAN_MOTION_DDOT = 0

CCSDS_OMM_VERS = 2.0
CREATION_DATE  = 
ORIGINATOR     = 

OBJECT_NAME    = ARIANE 40 R/B
OBJECT_ID      = 1991-050F
CENTER_NAME    = EARTH
REF_FRAME      = TEME
TIME_SYSTEM    = UTC
MEAN_ELEMENT_THEORY = SGP/SGP4

EPOCH          = 2026-01-11T02:54:18.624096
MEAN_MOTION    = 14.42842058
ECCENTRICITY   = .00021441
INCLINATION    = 98.2123
RA_OF_ASC_NODE = 65.4854
ARG_OF_PERICENTER = 234.7157
MEAN_ANOMALY   = 125.3834

EPHEMERIS_TYPE = 0
CLASSIFICATION_TYPE = U
NORAD_CAT_ID   = 21610
ELEMENT_SET_NO = 999
REV_AT_EPOCH   = 81069
BSTAR          = .10731677E-3
MEAN_MOTION_DOT = .316E-5
MEAN_MOTION_DDOT = 0

CCSDS_OMM_VERS = 2.0
CREATION_DATE  = 
ORIGINATOR     = 

OBJECT_NAME    = INTERCOSMOS 25
OBJECT_ID      = 1991-086A
CENTER_NAME    = EARTH
REF_FRAME      = TEME
TIME_SYSTEM    = UTC
MEAN_ELEMENT_THEORY = SGP/SGP4

EPOCH          = 2026-01-11T06:36:09.275904
MEAN_MOTION    = 12.11847126
ECCENTRICITY   = .14859657
INCLINATION    = 82.6084
RA_OF_ASC_NODE = 344.7094
ARG_OF_PERICENTER = 240.6908
MEAN_ANOMALY   = 103.7747

EPHEMERIS_TYPE = 0
CLASSIFICATION_TYPE = U
NORAD_CAT_ID   = 21819
ELEMENT_SET_NO = 999
REV_AT_EPOCH   = 48973
BSTAR          = .33456461E-3
MEAN_MOTION_DOT = .1684E-4
MEAN_MOTION_DDOT = 0

CCSDS_OMM_VERS = 2.0
CREATION_DATE  = 
ORIGINATOR     = 

OBJECT_NAME    = SL-8 R/B
OBJECT_ID      = 1992-008B
CENTER_NAME    = EARTH
REF_FRAME      = TEME
TIME_SYSTEM    = UTC
MEAN_ELEMENT_THEORY = SGP/SGP4

EPOCH          = 2026-01-11T06:50:32.568288
MEAN_MOTION    = 13.75965858
ECCENTRICITY   = .00335253
INCLINATION    = 82.9288
RA_OF_ASC_NODE = 310.4727
ARG_OF_PERICENTER = 296.3455
MEAN_ANOMALY   = 173.1766

EPHEMERIS_TYPE = 0
CLASSIFICATION_TYPE = U
NORAD_CAT_ID   = 21876
ELEMENT_SET_NO = 999
REV_AT_EPOCH   = 70152
BSTAR          = .91717453E-4
MEAN_MOTION_DOT = .104E-5
MEAN_MOTION_DDOT = 0

CCSDS_OMM_VERS = 2.0
CREATION_DATE  = 
ORIGINATOR     = 

OBJECT_NAME    = SL-8 R/B
OBJECT_ID      = 1992-020B
CENTER_NAME    = EARTH
REF_FRAME      = TEME
TIME_SYSTEM    = UTC
MEAN_ELEMENT_THEORY = SGP/SGP4

EPOCH          = 2026-01-11T06:00:48.072960
MEAN_MOTION    = 13.75536706
ECCENTRICITY   = .00302365
INCLINATION    = 82.9291
RA_OF_ASC_NODE = 196.4023
ARG_OF_PERICENTER = 97.9103
MEAN_ANOMALY   = 74.7517

EPHEMERIS_TYPE = 0
CLASSIFICATION_TYPE = U
NORAD_CAT_ID   = 21938
ELEMENT_SET_NO = 999
REV_AT_EPOCH   = 69323
BSTAR          = .1712446E-3
MEAN_MOTION_DOT = .181E-5
MEAN_MOTION_DDOT = 0

CCSDS_OMM_VERS = 2.0
CREATION_DATE  = 
ORIGINATOR     = 

OBJECT_NAME    = USA 81
OBJECT_ID      = 1992-023A
CENTER_NAME    = EARTH
REF_FRAME      = TEME
TIME_SYSTEM    = UTC
MEAN_ELEMENT_THEORY = SGP/SGP4

EPOCH          = 2026-01-11T03:58:11.066304
MEAN_MOTION    = 14.32340993
ECCENTRICITY   = .00015046
INCLINATION    = 85.0097
RA_OF_ASC_NODE = 164.6063
ARG_OF_PERICENTER = 116.9004
MEAN_ANOMALY   = 243.2343

EPHEMERIS_TYPE = 0
CLASSIFICATION_TYPE = U
NORAD_CAT_ID   = 21949
ELEMENT_SET_NO = 999
REV_AT_EPOCH   = 8655
BSTAR          = .75153197E-4
MEAN_MOTION_DOT = .223E-5
MEAN_MOTION_DDOT = 0

CCSDS_OMM_VERS = 2.0
CREATION_DATE  = 
ORIGINATOR     = 

OBJECT_NAME    = COSMOS 2219
OBJECT_ID      = 1992-076A
CENTER_NAME    = EARTH
REF_FRAME      = TEME
TIME_SYSTEM    = UTC
MEAN_ELEMENT_THEORY = SGP/SGP4

EPOCH          = 2026-01-11T07:02:40.224768
MEAN_MOTION    = 14.14081034
ECCENTRICITY   = .00204896
INCLINATION    = 71.0615
RA_OF_ASC_NODE = 138.0541
ARG_OF_PERICENTER = 286.2189
MEAN_ANOMALY   = 73.6679

EPHEMERIS_TYPE = 0
CLASSIFICATION_TYPE = U
NORAD_CAT_ID   = 22219
ELEMENT_SET_NO = 999
REV_AT_EPOCH   = 71026
BSTAR          = .79392469E-4
MEAN_MOTION_DOT = .104E-5
MEAN_MOTION_DDOT = 0

CCSDS_OMM_VERS = 2.0
CREATION_DATE  = 
ORIGINATOR     = 

OBJECT_NAME    = SL-16 R/B
OBJECT_ID      = 1992-076B
CENTER_NAME    = EARTH
REF_FRAME      = TEME
TIME_SYSTEM    = UTC
MEAN_ELEMENT_THEORY = SGP/SGP4

EPOCH          = 2026-01-11T05:57:11.608992
MEAN_MOTION    = 14.16847760
ECCENTRICITY   = .00132014
INCLINATION    = 71.0015
RA_OF_ASC_NODE = 309.3730
ARG_OF_PERICENTER = 192.8901
MEAN_ANOMALY   = 329.5561

EPHEMERIS_TYPE = 0
CLASSIFICATION_TYPE = U
NORAD_CAT_ID   = 22220
ELEMENT_SET_NO = 999
REV_AT_EPOCH   = 71369
BSTAR          = .16429991E-3
MEAN_MOTION_DOT = .282E-5
MEAN_MOTION_DDOT = 0

CCSDS_OMM_VERS = 2.0
CREATION_DATE  = 
ORIGINATOR     = 

OBJECT_NAME    = COSMOS 2221
OBJECT_ID      = 1992-080A
CENTER_NAME    = EARTH
REF_FRAME      = TEME
TIME_SYSTEM    = UTC
MEAN_ELEMENT_THEORY = SGP/SGP4

EPOCH          = 2026-01-11T07:38:12.451488
MEAN_MOTION    = 14.95916055
ECCENTRICITY   = .00154993
INCLINATION    = 82.5058
RA_OF_ASC_NODE = 334.0113
ARG_OF_PERICENTER = 31.5970
MEAN_ANOMALY   = 328.6179

EPHEMERIS_TYPE = 0
CLASSIFICATION_TYPE = U
NORAD_CAT_ID   = 22236
ELEMENT_SET_NO = 999
REV_AT_EPOCH   = 77221
BSTAR          = .22853602E-3
MEAN_MOTION_DOT = .2588E-4
MEAN_MOTION_DDOT = 0

CCSDS_OMM_VERS = 2.0
CREATION_DATE  = 
ORIGINATOR     = 

OBJECT_NAME    = SL-16 R/B
OBJECT_ID      = 1992-093B
CENTER_NAME    = EARTH
REF_FRAME      = TEME
TIME_SYSTEM    = UTC
MEAN_ELEMENT_THEORY = SGP/SGP4

EPOCH          = 2026-01-11T00:02:37.403520
MEAN_MOTION    = 14.15434809
ECCENTRICITY   = .000345
INCLINATION    = 71.0216
RA_OF_ASC_NODE = 125.3703
ARG_OF_PERICENTER = 3.6395
MEAN_ANOMALY   = 356.4753

EPHEMERIS_TYPE = 0
CLASSIFICATION_TYPE = U
NORAD_CAT_ID   = 22285
ELEMENT_SET_NO = 999
REV_AT_EPOCH   = 70499
BSTAR          = .1148123E-3
MEAN_MOTION_DOT = .177E-5
MEAN_MOTION_DDOT = 0

CCSDS_OMM_VERS = 2.0
CREATION_DATE  = 
ORIGINATOR     = 

OBJECT_NAME    = COSMOS 2228
OBJECT_ID      = 1992-094A
CENTER_NAME    = EARTH
REF_FRAME      = TEME
TIME_SYSTEM    = UTC
MEAN_ELEMENT_THEORY = SGP/SGP4

EPOCH          = 2026-01-11T05:43:11.094240
MEAN_MOTION    = 14.96898203
ECCENTRICITY   = .00191398
INCLINATION    = 82.5189
RA_OF_ASC_NODE = 292.3101
ARG_OF_PERICENTER = 131.2004
MEAN_ANOMALY   = 229.0873

EPHEMERIS_TYPE = 0
CLASSIFICATION_TYPE = U
NORAD_CAT_ID   = 22286
ELEMENT_SET_NO = 999
REV_AT_EPOCH   = 76746
BSTAR          = .23349922E-3
MEAN_MOTION_DOT = .2715E-4
MEAN_MOTION_DDOT = 0

